[
    {
        "Altitude(m)": 612502.188948826,
        "Argument of Periapsis(deg)": 0.0,
        "Eccentricity": 0.0,
        "Inclination(deg)": 60.0,
        "Latitude(deg)": -28.135954834026148,
        "Longitude(deg)": 117.14822765290775,
        "Mean Anomaly(deg)": -32.72730000000001,
        "RAAN(deg)": 235.0,
        "Satellite Name": "Test1 1054",
        "Satellite Number": 1054,
        "Semi-Major Axis(m)": 6980739.136638005,
        "Time(s)": 0
    },
    {
        "Altitude(m)": 612308.6369832873,
        "Argument of Periapsis(deg)": 0.00010418945913296404,
        "Eccentricity": 0.0,
        "Inclination(deg)": 60.0,
        "Latitude(deg)": -27.623010390804513,
        "Longitude(deg)": 117.50170220964382,
        "Mean Anomaly(deg)": -32.10719385453816,
        "RAAN(deg)": 234.99957995086027,
        "Satellite Name": "Test1 1054",
        "Satellite Number": 1054,
        "Semi-Major Axis(m)": 6980739.136638005,
        "Time(s)": 10
    },
    {
        "Altitude(m)": 612116.0539229532,
        "Argument of Periapsis(deg)": 0.0002083789182659281,
        "Eccentricity": 0.0,
        "Inclination(deg)": 60.0,
        "Latitude(deg)": -27.108897084219798,
        "Longitude(deg)": 117.85152560979265,
        "Mean Anomaly(deg)": -31.487087709076306,
        "RAAN(deg)": 234.99915990172047,
        "Satellite Name": "Test1 1054",
        "Satellite Number": 1054,
        "Semi-Major Axis(m)": 6980739.136638005,
        "Time(s)": 20
    },
    {
        "Altitude(m)": 611924.5093543789,
        "Argument of Periapsis(deg)": 0.00031256837739889213,
        "Eccentricity": 0.0,
        "Inclination(deg)": 60.0,
        "Latitude(deg)": -26.593649229736624,
        "Longitude(deg)": 118.1978022696657,
        "Mean Anomaly(deg)": -30.866981563614505,
        "RAAN(deg)": 234.9987398525808,
        "Satellite Name": "Test1 1054",
        "Satellite Number": 1054,
        "Semi-Major Axis(m)": 6980739.136638005,
        "Time(s)": 30
    },
    {
        "Altitude(m)": 611734.0722574957,
        "Argument of Periapsis(deg)": 0.0004167578365318562,
        "Eccentricity": 0.0,
        "Inclination(deg)": 60.0,
        "Latitude(deg)": -26.077300293476178,
        "Longitude(deg)": 118.54063488798947,
        "Mean Anomaly(deg)": -30.246875418152648,
        "RAAN(deg)": 234.99831980344103,
        "Satellite Name": "Test1 1054",
        "Satellite Number": 1054,
        "Semi-Major Axis(m)": 6980739.136638005,
        "Time(s)": 40
    },
    {
        "Altitude(m)": 611544.8109751176,
        "Argument of Periapsis(deg)": 0.0005209472956648203,
        "Eccentricity": 0.0,
        "Inclination(deg)": 60.0,
        "Latitude(deg)": -25.559882924618005,
        "Longitude(deg)": 118.88012350116529,
        "Mean Anomaly(deg)": -29.626769272690794,
        "RAAN(deg)": 234.99789975430124,
        "Satellite Name": "Test1 1054",
        "Satellite Number": 1054,
        "Semi-Major Axis(m)": 6980739.136638005,
        "Time(s)": 50
    },
    {
        "Altitude(m)": 611356.7931827119,
        "Argument of Periapsis(deg)": 0.0006251367547977843,
        "Eccentricity": 0.0,
        "Inclination(deg)": 60.0,
        "Latitude(deg)": -25.041428986698392,
        "Longitude(deg)": 119.21636605064755,
        "Mean Anomaly(deg)": -29.006663127229043,
        "RAAN(deg)": 234.9974797051615,
        "Satellite Name": "Test1 1054",
        "Satellite Number": 1054,
        "Semi-Major Axis(m)": 6980739.136638005,
        "Time(s)": 60
    },
    {
        "Altitude(m)": 611170.0858584621,
        "Argument of Periapsis(deg)": 0.0007293262139307483,
        "Eccentricity": 0.0,
        "Inclination(deg)": 60.0,
        "Latitude(deg)": -24.52196958784277,
        "Longitude(deg)": 119.54945894950951,
        "Mean Anomaly(deg)": -28.38655698176714,
        "RAAN(deg)": 234.99705965602183,
        "Satellite Name": "Test1 1054",
        "Satellite Number": 1054,
        "Semi-Major Axis(m)": 6980739.136638005,
        "Time(s)": 70
    },
    {
        "Altitude(m)": 610984.755253664,
        "Argument of Periapsis(deg)": 0.0008335156730637124,
        "Eccentricity": 0.0,
        "Inclination(deg)": 60.0,
        "Latitude(deg)": -24.00153510996927,
        "Longitude(deg)": 119.87949613527198,
        "Mean Anomaly(deg)": -27.76645083630539,
        "RAAN(deg)": 234.99663960688204,
        "Satellite Name": "Test1 1054",
        "Satellite Number": 1054,
        "Semi-Major Axis(m)": 6980739.136638005,
        "Time(s)": 80
    },
    {
        "Altitude(m)": 610800.8668634275,
        "Argument of Periapsis(deg)": 0.0009377051321966765,
        "Eccentricity": 0.0,
        "Inclination(deg)": 60.0,
        "Latitude(deg)": -23.480155237000172,
        "Longitude(deg)": 120.20656963470049,
        "Mean Anomaly(deg)": -27.146344690843538,
        "RAAN(deg)": 234.99621955774228,
        "Satellite Name": "Test1 1054",
        "Satellite Number": 1054,
        "Semi-Major Axis(m)": 6980739.136638005,
        "Time(s)": 90
    },
    {
        "Altitude(m)": 610618.4853977603,
        "Argument of Periapsis(deg)": 0.0010418945913296407,
        "Eccentricity": 0.0,
        "Inclination(deg)": 60.0,
        "Latitude(deg)": -22.957858982119028,
        "Longitude(deg)": 120.53077012766296,
        "Mean Anomaly(deg)": -26.526238545381684,
        "RAAN(deg)": 234.99579950860254,
        "Satellite Name": "Test1 1054",
        "Satellite Number": 1054,
        "Semi-Major Axis(m)": 6980739.136638005,
        "Time(s)": 100
    },
    {
        "Altitude(m)": 610437.6747529742,
        "Argument of Periapsis(deg)": 0.0011460840504626045,
        "Eccentricity": 0.0,
        "Inclination(deg)": 60.0,
        "Latitude(deg)": -22.43467471410527,
        "Longitude(deg)": 120.85218599715114,
        "Mean Anomaly(deg)": -25.906132399919883,
        "RAAN(deg)": 234.9953794594628,
        "Satellite Name": "Test1 1054",
        "Satellite Number": 1054,
        "Semi-Major Axis(m)": 6980739.136638005,
        "Time(s)": 110
    },
    {
        "Altitude(m)": 610258.4979834883,
        "Argument of Periapsis(deg)": 0.0012502735095955685,
        "Eccentricity": 0.0,
        "Inclination(deg)": 60.0,
        "Latitude(deg)": -21.91063018278396,
        "Longitude(deg)": 121.17090389119039,
        "Mean Anomaly(deg)": -25.28602625445803,
        "RAAN(deg)": 234.99495941032308,
        "Satellite Name": "Test1 1054",
        "Satellite Number": 1054,
        "Semi-Major Axis(m)": 6980739.136638005,
        "Time(s)": 120
    },
    {
        "Altitude(m)": 610081.0172740147,
        "Argument of Periapsis(deg)": 0.0013544629687285324,
        "Eccentricity": 0.0,
        "Inclination(deg)": 60.0,
        "Latitude(deg)": -21.385752543623745,
        "Longitude(deg)": 121.48700928375256,
        "Mean Anomaly(deg)": -24.66592010899628,
        "RAAN(deg)": 234.9945393611833,
        "Satellite Name": "Test1 1054",
        "Satellite Number": 1054,
        "Semi-Major Axis(m)": 6980739.136638005,
        "Time(s)": 130
    },
    {
        "Altitude(m)": 609905.29391215,
        "Argument of Periapsis(deg)": 0.0014586524278614966,
        "Eccentricity": 0.0,
        "Inclination(deg)": 60.0,
        "Latitude(deg)": -20.860068381513123,
        "Longitude(deg)": 121.80058552179167,
        "Mean Anomaly(deg)": -24.045813963534425,
        "RAAN(deg)": 234.99411931204358,
        "Satellite Name": "Test1 1054",
        "Satellite Number": 1054,
        "Semi-Major Axis(m)": 6980739.136638005,
        "Time(s)": 140
    },
    {
        "Altitude(m)": 609731.3882613828,
        "Argument of Periapsis(deg)": 0.0015628418869944607,
        "Eccentricity": 0.0,
        "Inclination(deg)": 60.0,
        "Latitude(deg)": -20.333603733751463,
        "Longitude(deg)": 122.11171438414243,
        "Mean Anomaly(deg)": -23.425707818072624,
        "RAAN(deg)": 234.99369926290385,
        "Satellite Name": "Test1 1054",
        "Satellite Number": 1054,
        "Semi-Major Axis(m)": 6980739.136638005,
        "Time(s)": 150
    },
    {
        "Altitude(m)": 609559.3597345279,
        "Argument of Periapsis(deg)": 0.0016670313461274247,
        "Eccentricity": 0.0,
        "Inclination(deg)": 60.0,
        "Latitude(deg)": -19.806384112282434,
        "Longitude(deg)": 122.42047663941229,
        "Mean Anomaly(deg)": -22.80560167261077,
        "RAAN(deg)": 234.9932792137641,
        "Satellite Name": "Test1 1054",
        "Satellite Number": 1054,
        "Semi-Major Axis(m)": 6980739.136638005,
        "Time(s)": 160
    },
    {
        "Altitude(m)": 609389.2667676145,
        "Argument of Periapsis(deg)": 0.0017712208052603888,
        "Eccentricity": 0.0,
        "Inclination(deg)": 60.0,
        "Latitude(deg)": -19.278434525201067,
        "Longitude(deg)": 122.72695108999761,
        "Mean Anomaly(deg)": -22.185495527148916,
        "RAAN(deg)": 234.99285916462435,
        "Satellite Name": "Test1 1054",
        "Satellite Number": 1054,
        "Semi-Major Axis(m)": 6980739.136638005,
        "Time(s)": 170
    },
    {
        "Altitude(m)": 609221.1667942371,
        "Argument of Periapsis(deg)": 0.001875410264393353,
        "Eccentricity": 0.0,
        "Inclination(deg)": 60.0,
        "Latitude(deg)": -18.74977949756475,
        "Longitude(deg)": 123.03121512797769,
        "Mean Anomaly(deg)": -21.565389381687062,
        "RAAN(deg)": 234.99243911548461,
        "Satellite Name": "Test1 1054",
        "Satellite Number": 1054,
        "Semi-Major Axis(m)": 6980739.136638005,
        "Time(s)": 180
    },
    {
        "Altitude(m)": 609055.1162203448,
        "Argument of Periapsis(deg)": 0.0019795997235263173,
        "Eccentricity": 0.0,
        "Inclination(deg)": 60.0,
        "Latitude(deg)": -18.2204430915365,
        "Longitude(deg)": 123.33334529002502,
        "Mean Anomaly(deg)": -20.94528323622526,
        "RAAN(deg)": 234.99201906634488,
        "Satellite Name": "Test1 1054",
        "Satellite Number": 1054,
        "Semi-Major Axis(m)": 6980739.136638005,
        "Time(s)": 190
    }
]